ZY-1 02D                
1 44528U 19059A   25248.60396080  .00000287  00000+0  11459-3 0  9999
2 44528  98.3604 314.5663 0000421 210.2140 149.9021 14.35439264313510
BNU-1 (JINGSHI 1)       
1 44529U 19059B   25248.56423218  .00001152  00000+0  32279-3 0  9994
2 44529  98.5741   8.0304 0013806 151.0608 209.1353 14.47910844315794
TAURUS-1 (JINNIUZUO 1)  
1 44530U 19059C   25248.61902947  .00010209  00000+0  18325-2 0  9991
2 44530  98.6156  32.2933 0009838 122.1828 238.0330 14.66887793316847
ZHUHAI-1 03B            
1 44536U 19060C   25248.56657506  .00023288  00000+0  67305-3 0  9995
2 44536  97.5279  30.5880 0011778 269.4180  90.5714 15.35578845332387
ZHUHAI-1 03C            
1 44537U 19060D   25248.66108220  .00038118  00000+0  76998-3 0  9997
2 44537  97.5539  35.0713 0016980 232.0226 127.9489 15.46243318332693
ZHUHAI-1 03D            
1 44538U 19060E   25248.63237323  .00022972  00000+0  72737-3 0  9990
2 44538  97.5108  25.0391 0010712 248.4305 111.5796 15.32700740332257
ZHUHAI-1 03E            
1 44539U 19060F   25248.63228638  .00017847  00000+0  62944-3 0  9994
2 44539  97.5306  26.8389 0010091 309.8174  50.2176 15.29272897332108
BEIDOU-3 M24            
1 44542U 19061A   25247.58227345  .00000009  00000+0  00000+0 0  9999
2 44542  54.4079 192.3607 0008675   0.5451 359.4280  1.86229354 40475
BEIDOU-3 M23            
1 44543U 19061B   25248.23610515  .00000010  00000+0  00000+0 0  9990
2 44543  54.4066 192.3072 0005704 345.5177   5.6084  1.86229497 40486
YUNHAI-1 02             
1 44547U 19063A   25248.60085674  .00000423  00000+0  17178-3 0  9995
2 44547  98.4240 262.1940 0004266 284.4561  75.6150 14.32547483311128
COSMOS 2541             
1 44552U 19065A   25248.12768765  .00000138  00000+0  00000+0 0  9994
2 44552  62.7276 183.2800 6483806 272.4436  20.2799  2.00601135 43506
GAOFEN-10R              
1 44622U 19066A   25248.60565345  .00002602  00000+0  32743-3 0  9996
2 44622  98.0094 195.8297 0005615   3.3598 356.7652 14.82915023320202
EUTELSAT 5 WEST B       
1 44624U 19067A   25248.59186123 -.00000045  00000+0  00000+0 0  9997
2 44624   0.0983 309.2304 0003200 217.4482  26.3304  1.00272614 21583
PALISADE                
1 44634U 19069A   25248.26300903 -.00000240  00000+0 -70705-3 0  9999
2 44634  87.8997 336.4855 0011012 108.8498 251.3825 13.11893235281753
TJS-4                   
1 44637U 19070A   25248.60954130 -.00000172  00000+0  00000+0 0  9999
2 44637   0.0129 206.9483 0002703 324.0018 116.9984  1.00271109 21619
GAOFEN-7                
1 44703U 19072A   25248.60846194  .00007322  00000+0  32778-3 0  9999
2 44703  97.2847 315.0883 0009952 303.1080  56.9201 15.21514103324370
BEIDOU-3 IGSO-3         
1 44709U 19073A   25247.50261164 -.00000130  00000+0  00000+0 0  9992
2 44709  55.2900 283.9854 0045719 191.3124 168.6978  1.00274294 21594
STARLINK-1008           
1 44714U 19074B   25248.46439317  .00000643  00000+0  62033-4 0  9999
2 44714  53.0551 298.1306 0001409  90.7725 269.3425 15.06395776320830
STARLINK-1010           
1 44716U 19074D   25248.58336806  .00062614  00000+0  41551-3 0  9990
2 44716  53.0501 254.3064 0011738   0.5624 249.0380 15.74816785  6025
STARLINK-1011           
1 44717U 19074E   25248.47251010  .00119275  00000+0  12350-2 0  9992
2 44717  53.0534 307.4933 0005143 348.4667  11.6228 15.63841839320705
STARLINK-1012           
1 44718U 19074F   25248.57498257 -.00010793  00000+0 -70772-3 0  9990
2 44718  53.0548 297.6361 0001543  91.5033 268.6133 15.06351521320844
STARLINK-1015           
1 44721U 19074J   25248.58336806  .00267349  37507-4  84725-3 0  9995
2 44721  53.0454 243.9738 0004523 357.4509  25.4985 15.90783877  6064
STARLINK-1017           
1 44723U 19074L   25248.43831874  .00034449  00000+0  20920-2 0  9998
2 44723  53.0546 297.1656 0002163 309.6128  50.4672 15.10206793320847
STARLINK-1019           
1 44724U 19074M   25248.50493634 -.00000930  00000+0 -43532-4 0  9991
2 44724  53.0549 297.9477 0001327  73.8328 286.2807 15.06391769320834
STARLINK-1020           
1 44725U 19074N   25248.57682997 -.00000468  00000+0 -12508-4 0  9996
2 44725  53.0555 317.6261 0001266  77.1240 282.9891 15.06383259320566
STARLINK-1021           
1 44726U 19074P   25248.58336806  .00299447  00000+0  12072-2 0  9992
2 44726  53.0447 249.2560 0004756 337.3149  35.4910 15.85038594  6048
STARLINK-1029           
1 44734U 19074X   25248.58336806  .00254302  00000+0  12785-2 0  9993
2 44734  53.0525 172.5044 0009560  64.5216 106.1743 15.80401925  6037
STARLINK-1030           
1 44735U 19074Y   25248.58336806  .01385331  10151-2  30151-2 0  9990
2 44735  53.0401 266.7107 0001394  49.2398  52.0068 15.97905566  6076
STARLINK-1031           
1 44736U 19074Z   25248.56464749  .00069058  00000+0  19718-2 0  9996
2 44736  53.0556 300.6481 0005479 312.6898  47.3642 15.35398399320819
STARLINK-1036           
1 44741U 19074AE  25248.47361030  .00002307  00000+0  17372-3 0  9990
2 44741  53.0550 318.0914 0001423  87.7636 272.3516 15.06398368320553
STARLINK-1039           
1 44744U 19074AH  25248.56342739  .00012216  00000+0  78583-3 0  9999
2 44744  53.0547 337.2921 0003500 287.4611  72.5996 15.08762907320292
STARLINK-1042           
1 44747U 19074AL  25248.31914490  .00020170  00000+0  50072-3 0  9995
2 44747  53.0470 257.6689 0002580 347.4105  12.6834 15.40349652321413
STARLINK-1043           
1 44748U 19074AM  25248.51231888  .00009229  00000+0  63774-3 0  9996
2 44748  53.0556 337.9159 0000961  60.0383 300.0701 15.06395571320284
STARLINK-1046           
1 44751U 19074AQ  25248.52705488  .00004725  00000+0  33589-3 0  9990
2 44751  53.0554 337.8505 0001492  74.3883 285.7270 15.06397112320286
STARLINK-1047           
1 44752U 19074AR  25248.39317821  .00035484  00000+0  13023-2 0  9992
2 44752  53.0715 288.4522 0003922  17.3790 342.7343 15.27638735320973
STARLINK-1048           
1 44753U 19074AS  25248.42016787  .00001459  00000+0  11683-3 0  9990
2 44753  53.0550 298.3311 0001296  81.1813 278.9323 15.06395773320825
STARLINK-1053           
1 44758U 19074AX  25248.50067944  .00044185  00000+0  67707-3 0  9996
2 44758  53.0427 276.4446 0003194  35.4031 324.7190 15.53910776321159
STARLINK-1054           
1 44759U 19074AY  25248.58336806  .00201043  00000+0  23590-2 0  9990
2 44759  53.0480 306.6614 0010223 312.8745 103.5456 15.60269142  5763
STARLINK-1056           
1 44761U 19074BA  25248.58336806  .00204373  00000+0  14995-2 0  9991
2 44761  53.0484 297.4185 0011672 340.4989  23.3538 15.71924733  5964
STARLINK-1057           
1 44762U 19074BB  25248.58336806  .00294837  00000+0  11038-2 0  9991
2 44762  53.0446 270.1652 0005947 334.9076   6.7132 15.86572360  6049
STARLINK-1060           
1 44765U 19074BE  25248.58336806  .00078528  00000+0  43824-2 0  9999
2 44765  53.0552 317.4499 0002040  68.9205  82.0998 15.12863285  5801
STARLINK-1063           
1 44768U 19074BH  25248.51600087  .00008350  00000+0  57867-3 0  9999
2 44768  53.0569 337.8971 0001759  88.8024 271.3167 15.06408488320296
STARLINK-1067           
1 44771U 19074BL  25248.57128394  .00012381  00000+0  84851-3 0  9997
2 44771  53.0555 337.6513 0001257  94.9816 265.1317 15.06403778320290
STARLINK-1068           
1 44772U 19074BM  25248.56206569  .00003952  00000+0  28407-3 0  9997
2 44772  53.0549 317.6934 0001193  84.0673 276.0452 15.06402125320565
JILIN-1 GAOFEN 2A       
1 44777U 19075A   25248.60417877  .00014591  00000+0  50811-3 0  9999
2 44777  97.5267 322.3142 0008192  27.4639 332.7033 15.29747935321239
NINGXIA-1 1             
1 44779U 19076A   25248.64332980  .00000008  00000+0  89444-4 0  9990
2 44779  45.0075  11.3683 0011871 248.7348 111.2219 14.01974112297926
NINGXIA-1 2             
1 44780U 19076B   25248.62941642  .00000007  00000+0  89201-4 0  9991
2 44780  45.0102  11.7327 0007650 241.1729 118.8337 14.01955770297921
NINGXIA-1 3             
1 44781U 19076C   25248.61409465  .00000002  00000+0  85925-4 0  9997
2 44781  45.0015  10.1921 0010872 238.0397 121.9380 14.01986373297920
NINGXIA-1 4             
1 44782U 19076D   25248.59926792 -.00000002  00000+0  82973-4 0  9993
2 44782  45.0100  11.5008 0013526 218.4345 141.5526 14.01968056297884
NINGXIA-1 5             
1 44783U 19076E   25248.65564877 -.00000021  00000+0  70546-4 0  9997
2 44783  45.0073  10.6533 0011764 238.0783 121.8908 14.01959992297843
KL-ALPHA A              
1 44785U 19077A   25248.58983023  .00000068  00000+0  79367-4 0  9990
2 44785  88.9049 253.9406 0009905 210.3461 149.7120 13.56005010287166
KL-ALPHA B              
1 44786U 19077B   25248.58938984  .00000080  00000+0  97347-4 0  9999
2 44786  88.8910 251.9178 0024490 258.9469 100.8931 13.55966520286617
BEIDOU-3 M22            
1 44793U 19078A   25246.34982716 -.00000038  00000+0  00000+0 0  9991
2 44793  54.1957 309.9089 0004537  32.6509 327.4504  1.86232254 39305
BEIDOU-3 M21            
1 44794U 19078B   25247.02213959 -.00000034  00000+0  00000+0 0  9990
2 44794  54.1687 309.8523 0002598  18.8605 341.2245  1.86227795 39328
TIBA-1                  
1 44800U 19080A   25248.52859428  .00000153  00000+0  00000+0 0  9995
2 44800   0.0539 345.9470 0002264 182.0378  42.6971  1.00269408 21204
INMARSAT GX5            
1 44801U 19080B   25248.59515457  .00000072  00000+0  00000+0 0  9994
2 44801   0.0492  27.7751 0001990 143.4175  39.0183  1.00272458  3935
CARTOSAT-3              
1 44804U 19081A   25248.62413043  .00005840  00000+0  28020-3 0  9994
2 44804  97.4738 309.3613 0014176  68.7087 291.5659 15.19174686320268
GAOFEN-12 01            
1 44819U 19082A   25248.61291527  .00000859  00000+0  11896-3 0  9999
2 44819  97.8152 257.4484 0002240 175.6513 184.4719 14.80487409311981
JILIN-1 GAOFEN 2B       
1 44836U 19086A   25248.62484734  .00008540  00000+0  44630-3 0  9994
2 44836  97.5249 317.7407 0014601 226.1777 133.8250 15.16042415317301
